ONEWEB-0327             
1 49196U 21083L   23359.45299171  .00000092  00000+0  20087-3 0  9993
2 49196  87.9211 155.4789 0001316  79.7779 280.3502 13.18639554110787
ONEWEB-0328             
1 49197U 21083M   23359.46014350  .00000308  00000+0  80839-3 0  9990
2 49197  87.8992 140.3033 0001591  94.3091 265.8220 13.13468691112136
ONEWEB-0331             
1 49198U 21083N   23359.47290522  .00000079  00000+0  16872-3 0  9990
2 49198  87.9219 155.4545 0001565  90.0779 270.0532 13.18684754110779
ONEWEB-0333             
1 49199U 21083P   23359.45537090  .00000363  00000+0  96032-3 0  9995
2 49199  87.9002 140.3108 0001698 112.1011 248.0299 13.13469218112149
ONEWEB-0334             
1 49200U 21083Q   23359.80215040 -.00000022  00000+0 -85481-4 0  9996
2 49200  87.9196  94.5182 0001674 136.3639 223.7626 13.20771197118708
ONEWEB-0335             
1 49201U 21083R   23359.83150040  .00000504  00000+0  13451-2 0  9997
2 49201  87.9002 140.2253 0001738  96.7372 263.3955 13.13467913113493
ONEWEB-0336             
1 49202U 21083S   23359.42045130 -.00000181  00000+0 -52959-3 0  9996
2 49202  87.9002 140.3049 0001360 107.0818 253.0460 13.13471749112140
ONEWEB-0337             
1 49203U 21083T   23359.42983415 -.00000408  00000+0 -11526-2 0  9990
2 49203  87.9002 140.3019 0001653  97.2323 262.8994 13.13471732112146
